NORAD_CAT_ID,OBJECT_NAME,OBJECT_TYPE,EPOCH,MEAN_MOTION,ECCENTRICITY,INCLINATION,RA_OF_ASC_NODE,ARG_OF_PERICENTER,MEAN_ANOMALY,BSTAR,MEAN_MOTION_DOT,MEAN_MOTION_DDOT,TLE_LINE0,TLE_LINE1,TLE_LINE2,SEMIMAJOR_AXIS,PERIOD,APOGEE,PERIGEE,DECAYED
49763.0,STARLINK-3198,PAYLOAD,2024-03-09 11:13:19,15.08832808,0.0001596,53.2178,177.2164,101.3701,258.747,-6.7849e-05,-1.367e-05,0.0,0 STARLINK-3198,1 49763U 21115AR  24069.46758279 -.00001367  00000-0 -67849-4 0  9995,2 49763  53.2178 177.2164 0001596 101.3701 258.7470 15.08832808126554,6917.902,95.438,540.871,538.663,0.0
49763.0,STARLINK-3198,PAYLOAD,2024-03-09 14:24:05,15.0883269,0.0001453,53.2178,176.624,111.5514,248.5633,-5.1532e-05,-1.108e-05,0.0,0 STARLINK-3198,1 49763U 21115AR  24069.60006258 -.00001108  00000-0 -51532-4 0  9999,2 49763  53.2178 176.6240 0001453 111.5514 248.5633 15.08832690125465,6917.903,95.438,540.773,538.763,0.0
49763.0,STARLINK-3198,PAYLOAD,2024-03-09 23:56:23,15.08847034,0.0001352,53.2166,174.8342,81.8,278.3146,0.00012456,1.695e-05,0.0,0 STARLINK-3198,1 49763U 21115AR  24069.99749571  .00001695  00000-0  12456-3 0  9993,2 49763  53.2166 174.8342 0001352  81.8000 278.3146 15.08847034126630,6917.859,95.437,540.659,538.789,0.0
49763.0,STARLINK-3198,PAYLOAD,2024-03-10 11:04:06,15.08835016,0.0002209,53.2183,172.7531,92.3805,267.744,-8.5262e-05,-1.645e-05,0.0,0 STARLINK-3198,1 49763U 21115AR  24070.46118519 -.00001645  00000-0 -85262-4 0  9992,2 49763  53.2183 172.7531 0002209  92.3805 267.7440 15.08835016126702,6917.896,95.438,541.289,538.232,0.0
49763.0,STARLINK-3198,PAYLOAD,2024-03-10 15:50:15,15.08834674,0.0001799,53.2174,171.8593,78.5748,281.5446,-0.00013998,-2.515e-05,0.0,0 STARLINK-3198,1 49763U 21115AR  24070.65990540 -.00002515  00000-0 -13998-3 0  9998,2 49763  53.2174 171.8593 0001799  78.5748 281.5446 15.08834674125624,6917.897,95.438,541.006,538.517,0.0
49763.0,STARLINK-3198,PAYLOAD,2024-03-11 12:30:16,15.08837938,0.0001181,53.2156,167.9971,88.2084,271.9044,0.00016,2.259e-05,0.0,0 STARLINK-3198,1 49763U 21115AR  24071.52102587  .00002259  00000-0  16000-3 0  9991,2 49763  53.2156 167.9971 0001181  88.2084 271.9044 15.08837938126866,6917.887,95.438,540.569,538.935,0.0
49763.0,STARLINK-3198,PAYLOAD,2024-03-11 15:41:02,15.08844548,0.0001358,53.2157,167.4015,92.052,268.0627,0.00026065,3.863e-05,0.0,0 STARLINK-3198,1 49763U 21115AR  24071.65350213  .00003863  00000-0  26065-3 0  9990,2 49763  53.2157 167.4015 0001358  92.0520 268.0627 15.08844548126886,6917.866,95.437,540.671,538.792,0.0
49763.0,STARLINK-3198,PAYLOAD,2024-03-12 12:21:03,15.08840275,0.0001705,53.2191,163.5352,100.9306,259.1878,7.8466e-05,9.61e-06,0.0,0 STARLINK-3198,1 49763U 21115AR  24072.51462635  .00000961  00000-0  78466-4 0  9997,2 49763  53.2191 163.5352 0001705 100.9306 259.1878 15.08840275127010,6917.88,95.438,540.924,538.565,0.0
49763.0,STARLINK-3198,PAYLOAD,2024-03-13 12:11:50,15.08850628,0.0001662,53.2182,159.0762,95.4671,264.6511,7.6513e-05,9.3e-06,0.0,0 STARLINK-3198,1 49763U 21115AR  24073.50822030  .00000930  00000-0  76513-4 0  9993,2 49763  53.2182 159.0762 0001662  95.4671 264.6511 15.08850628126051,6917.848,95.437,540.863,538.563,0.0
49763.0,STARLINK-3198,PAYLOAD,2024-03-14 05:41:04,15.08846008,0.0001663,53.2181,155.8055,95.8769,264.2413,0.00012537,1.708e-05,0.0,0 STARLINK-3198,1 49763U 21115AR  24074.23686049  .00001708  00000-0  12537-3 0  9991,2 49763  53.2181 155.8055 0001663  95.8769 264.2413 15.08846008127271,6917.862,95.437,540.877,538.577,0.0
49763.0,STARLINK-3198,PAYLOAD,2024-03-14 12:02:37,15.08837661,0.0001597,53.2191,154.6159,96.5055,263.6118,1.5297e-05,-4.5e-07,0.0,0 STARLINK-3198,1 49763U 21115AR  24074.50182573 -.00000045  00000-0  15297-4 0  9995,2 49763  53.2191 154.6159 0001597  96.5055 263.6118 15.08837661127311,6917.888,95.438,540.857,538.648,0.0
49763.0,STARLINK-3198,PAYLOAD,2024-03-15 11:53:24,15.08837867,0.0001301,53.2169,150.1536,90.3798,269.7343,-3.4434e-05,-8.36e-06,0.0,0 STARLINK-3198,1 49763U 21115AR  24075.49542557 -.00000836  00000-0 -34434-4 0  9999,2 49763  53.2169 150.1536 0001301  90.3798 269.7343 15.08837867126353,6917.887,95.438,540.652,538.852,0.0
49763.0,STARLINK-3198,PAYLOAD,2024-03-16 05:22:39,15.08829685,0.0001319,53.2167,146.8818,107.8015,252.3121,2.6967e-05,1.41e-06,0.0,0 STARLINK-3198,1 49763U 21115AR  24076.22406978  .00000141  00000-0  26967-4 0  9996,2 49763  53.2167 146.8818 0001319 107.8015 252.3121 15.08829685127577,6917.912,95.438,540.689,538.864,0.0
49763.0,STARLINK-3198,PAYLOAD,2024-03-16 11:44:12,15.08829675,0.0001364,53.217,145.6934,106.8599,253.2543,2.748e-05,1.49e-06,0.0,0 STARLINK-3198,1 49763U 21115AR  24076.48903149  .00000149  00000-0  27480-4 0  9995,2 49763  53.2170 145.6934 0001364 106.8599 253.2543 15.08829675126502,6917.912,95.438,540.721,538.833,0.0
49763.0,STARLINK-3198,PAYLOAD,2024-03-17 11:34:59,15.08838376,0.0001326,53.2167,141.2345,97.5271,262.5872,0.00012502,1.702e-05,0.0,0 STARLINK-3198,1 49763U 21115AR  24077.48262765  .00001702  00000-0  12502-3 0  9992,2 49763  53.2167 141.2345 0001326  97.5271 262.5872 15.08838376127762,6917.885,95.438,540.668,538.833,0.0
49763.0,STARLINK-3198,PAYLOAD,2024-03-18 13:01:09,15.08833727,0.0001336,53.2167,136.4751,86.3206,273.7939,8.4639e-05,1.059e-05,0.0,0 STARLINK-3198,1 49763U 21115AR  24078.54247520  .00001059  00000-0  84639-4 0  9998,2 49763  53.2167 136.4751 0001336  86.3206 273.7939 15.08833727127925,6917.9,95.438,540.689,538.84,0.0
49763.0,STARLINK-3198,PAYLOAD,2024-03-19 09:41:09,15.0884902,0.0001436,53.2166,132.6101,79.2759,280.8395,8.4533e-05,1.058e-05,0.0,0 STARLINK-3198,1 49763U 21115AR  24079.40358640  .00001058  00000-0  84533-4 0  9992,2 49763  53.2166 132.6101 0001436  79.2759 280.8395 15.08849020126945,6917.853,95.437,540.711,538.724,0.0
49763.0,STARLINK-3198,PAYLOAD,2024-03-19 12:51:55,15.08855279,0.0001522,53.2173,132.0125,81.9254,278.191,0.00014264,1.984e-05,0.0,0 STARLINK-3198,1 49763U 21115AR  24079.53606033  .00001984  00000-0  14264-3 0  9999,2 49763  53.2173 132.0125 0001522  81.9254 278.1910 15.08855279128071,6917.834,95.437,540.752,538.646,0.0
49763.0,STARLINK-3198,PAYLOAD,2024-03-20 09:31:57,15.08838235,0.0001717,53.219,128.1398,108.497,251.6209,7.2056e-05,8.59e-06,0.0,0 STARLINK-3198,1 49763U 21115AR  24080.39719007  .00000859  00000-0  72056-4 0  9995,2 49763  53.2190 128.1398 0001717 108.4970 251.6209 15.08838235128209,6917.886,95.438,540.939,538.563,0.0
49763.0,STARLINK-3198,PAYLOAD,2024-03-20 12:42:43,15.08837954,0.0001449,53.2171,127.5554,72.0857,288.0293,3.9192e-05,3.36e-06,0.0,0 STARLINK-3198,1 49763U 21115AR  24080.52967489  .00000336  00000-0  39192-4 0  9993,2 49763  53.2171 127.5554 0001449  72.0857 288.0293 15.08837954127110,6917.887,95.438,540.754,538.749,0.0
49763.0,STARLINK-3198,PAYLOAD,2024-03-21 12:33:30,15.08848451,0.0001526,53.2168,123.0937,101.6754,258.441,-3.2787e-05,-8.1e-06,0.0,0 STARLINK-3198,1 49763U 21115AR  24081.52327062 -.00000810  00000-0 -32787-4 0  9993,2 49763  53.2168 123.0937 0001526 101.6754 258.4410 15.08848451128378,6917.855,95.437,540.775,538.664,0.0
49763.0,STARLINK-3198,PAYLOAD,2024-03-22 02:51:59,15.08836764,0.0001578,53.2167,120.4169,91.9192,268.1981,0.00014628,2.041e-05,0.0,0 STARLINK-3198,1 49763U 21115AR  24082.11943364  .00002041  00000-0  14628-3 0  9997,2 49763  53.2167 120.4169 0001578  91.9192 268.1981 15.08836764128464,6917.89,95.438,540.847,538.664,0.0
49763.0,STARLINK-3198,PAYLOAD,2024-03-22 07:38:08,15.08836661,0.0001527,53.2168,119.5246,91.3023,268.8144,0.00013815,1.911e-05,0.0,0 STARLINK-3198,1 49763U 21115AR  24082.31815498  .00001911  00000-0  13815-3 0  9997,2 49763  53.2168 119.5246 0001527  91.3023 268.8144 15.08836661127385,6917.891,95.438,540.812,538.699,0.0
49763.0,STARLINK-3198,PAYLOAD,2024-03-23 05:53:33,15.088357,0.0001447,53.2164,115.3613,94.0062,266.1096,5.5869e-05,6.01e-06,0.0,0 STARLINK-3198,1 49763U 21115AR  24083.24552188  .00000601  00000-0  55869-4 0  9995,2 49763  53.2164 115.3613 0001447  94.0062 266.1096 15.08835700128636,6917.894,95.438,540.76,538.758,0.0
49763.0,STARLINK-3198,PAYLOAD,2024-03-23 18:36:37,15.08840757,0.0001368,53.2163,112.9851,94.3927,265.7221,7.7057e-05,9.39e-06,0.0,0 STARLINK-3198,1 49763U 21115AR  24083.77543848  .00000939  00000-0  77057-4 0  9993,2 49763  53.2163 112.9851 0001368  94.3927 265.7221 15.08840757127606,6917.878,95.438,540.689,538.797,0.0
49763.0,STARLINK-3198,PAYLOAD,2024-03-24 05:44:19,15.08847553,0.0001366,53.2167,110.9027,97.4961,262.6186,0.00013503,1.862e-05,0.0,0 STARLINK-3198,1 49763U 21115AR  24084.23911203  .00001862  00000-0  13503-3 0  9990,2 49763  53.2167 110.9027 0001366  97.4961 262.6186 15.08847553128780,6917.857,95.437,540.667,538.777,0.0
49763.0,STARLINK-3198,PAYLOAD,2024-03-24 08:55:05,15.08852646,0.0001365,53.2159,110.3109,103.988,256.1264,0.00024725,3.651e-05,0.0,0 STARLINK-3198,1 49763U 21115AR  24084.37159080  .00003651  00000-0  24725-3 0  9998,2 49763  53.2159 110.3109 0001365 103.9880 256.1264 15.08852646127691,6917.842,95.437,540.651,538.762,0.0
49763.0,STARLINK-3198,PAYLOAD,2024-03-24 18:27:23,15.08870769,0.0001192,53.2144,108.5202,71.4543,288.6579,0.00050498,7.765e-05,0.0,0 STARLINK-3198,1 49763U 21115AR  24084.76901769  .00007765  00000-0  50498-3 0  9996,2 49763  53.2144 108.5202 0001192  71.4543 288.6579 15.08870769128866,6917.786,95.436,540.476,538.827,0.0
49763.0,STARLINK-3198,PAYLOAD,2024-03-25 05:35:06,15.08828729,0.0001564,53.2158,106.4429,85.0583,275.0588,-0.00016545,-2.919e-05,0.0,0 STARLINK-3198,1 49763U 21115AR  24085.23271965 -.00002919  00000-0 -16545-3 0  9990,2 49763  53.2158 106.4429 0001564  85.0583 275.0588 15.08828729128934,6917.915,95.438,540.862,538.698,0.0
49763.0,STARLINK-3198,PAYLOAD,2024-03-25 18:18:11,15.08839229,0.0001625,53.2171,104.0643,86.9155,273.2023,4.9947e-06,-2.09e-06,0.0,0 STARLINK-3198,1 49763U 21115AR  24085.76263562 -.00000209  00000-0  49947-5 0  9995,2 49763  53.2171 104.0643 0001625  86.9155 273.2023 15.08839229129015,6917.883,95.438,540.872,538.624,0.0
